[{"OBJECT_NAME":"ONEWEB-0259","OBJECT_ID":"2021-060L","EPOCH":"2026-03-09T22:07:39.256032","MEAN_MOTION":13.16593786,"ECCENTRICITY":0.00017722,"INCLINATION":87.9005,"RA_OF_ASC_NODE":248.5251,"ARG_OF_PERICENTER":98.8623,"MEAN_ANOMALY":261.2709,"EPHEMERIS_TYPE":0,"CLASSIFICATION_TYPE":"U","NORAD_CAT_ID":48977,"ELEMENT_SET_NO":999,"REV_AT_EPOCH":22656,"BSTAR":0.00014223059,"MEAN_MOTION_DOT":6.7e-7,"MEAN_MOTION_DDOT":0},{"OBJECT_NAME":"ARIANE 42P DEB","OBJECT_ID":"1992-052E","EPOCH":"2026-03-09T08:15:40.954464","MEAN_MOTION":12.88531167,"ECCENTRICITY":0.01591767,"INCLINATION":66.0048,"RA_OF_ASC_NODE":81.7894,"ARG_OF_PERICENTER":339.1306,"MEAN_ANOMALY":20.3262,"EPHEMERIS_TYPE":0,"CLASSIFICATION_TYPE":"U","NORAD_CAT_ID":44507,"ELEMENT_SET_NO":999,"REV_AT_EPOCH":30802,"BSTAR":0.0072948164,"MEAN_MOTION_DOT":1.913e-5,"MEAN_MOTION_DDOT":0}]
